{
  "norad_id": 41591,
  "name": "BRISAT",
  "history": [
    {
      "epoch": "2026-03-28T14:47:38.891904Z",
      "apogee_km": 35796.080370263255,
      "perigee_km": 35777.31027350685,
      "latitude_deg": -0.005655863526522167,
      "longitude_deg": 150.5017783259257,
      "height_km": 35795.14764596888,
      "semi_major_axis_km": 42164.83232188506,
      "eccentricity": 0.00022258,
      "inclination_deg": 0.0212,
      "raan_deg": 222.0798,
      "arg_perigee_deg": 138.276,
      "mean_anomaly_deg": 198.0768,
      "mean_motion_rev_day": 1.00271427
    },
    {
      "epoch": "2026-03-28T20:09:38.534112Z",
      "apogee_km": 35795.94242842704,
      "perigee_km": 35777.8367660062,
      "latitude_deg": 0.0335195160785712,
      "longitude_deg": 150.48546584890354,
      "height_km": 35784.81609948943,
      "semi_major_axis_km": 42165.02659721662,
      "eccentricity": 0.0002147,
      "inclination_deg": 0.0192,
      "raan_deg": 227.1229,
      "arg_perigee_deg": 132.1626,
      "mean_anomaly_deg": 279.8661,
      "mean_motion_rev_day": 1.00270734
    },
    {
      "epoch": "2026-03-29T09:08:58.932096Z",
      "apogee_km": 35795.95774221261,
      "perigee_km": 35777.03762733685,
      "latitude_deg": -0.03961149668029679,
      "longitude_deg": 150.5342820282348,
      "height_km": 35789.36973304905,
      "semi_major_axis_km": 42164.63468477473,
      "eccentricity": 0.00022436,
      "inclination_deg": 0.0208,
      "raan_deg": 222.9044,
      "arg_perigee_deg": 140.8776,
      "mean_anomaly_deg": 110.7387,
      "mean_motion_rev_day": 1.00272132
    },
    {
      "epoch": "2026-03-31T20:25:38.637696Z",
      "apogee_km": 35796.73867213565,
      "perigee_km": 35778.27012120392,
      "latitude_deg": 0.0499990520827686,
      "longitude_deg": 150.48730960066848,
      "height_km": 35785.64561806164,
      "semi_major_axis_km": 42165.64139666979,
      "eccentricity": 0.000219,
      "inclination_deg": 0.0241,
      "raan_deg": 210.0645,
      "arg_perigee_deg": 157.7696,
      "mean_anomaly_deg": 278.2942,
      "mean_motion_rev_day": 1.00268541
    },
    {
      "epoch": "2026-04-01T19:21:38.805696Z",
      "apogee_km": 35796.2285759932,
      "perigee_km": 35778.01318458891,
      "latitude_deg": 0.037228947060598656,
      "longitude_deg": 150.47289212194684,
      "height_km": 35788.034001801265,
      "semi_major_axis_km": 42165.25788029106,
      "eccentricity": 0.000216,
      "inclination_deg": 0.0221,
      "raan_deg": 228.0945,
      "arg_perigee_deg": 141.9475,
      "mean_anomaly_deg": 261.017,
      "mean_motion_rev_day": 1.00269909
    },
    {
      "epoch": "2026-04-02T20:11:38.724288Z",
      "apogee_km": 35796.13701542017,
      "perigee_km": 35777.36352101287,
      "latitude_deg": 0.03844585976584756,
      "longitude_deg": 150.47104032192087,
      "height_km": 35785.717575250965,
      "semi_major_axis_km": 42164.887268216524,
      "eccentricity": 0.00022262,
      "inclination_deg": 0.0189,
      "raan_deg": 231.1834,
      "arg_perigee_deg": 140.2455,
      "mean_anomaly_deg": 273.1519,
      "mean_motion_rev_day": 1.00271231
    },
    {
      "epoch": "2026-04-03T16:19:38.683776Z",
      "apogee_km": 35796.20494379669,
      "perigee_km": 35777.37408761478,
      "latitude_deg": 0.0002640573637727668,
      "longitude_deg": 150.48210767419457,
      "height_km": 35794.1579226708,
      "semi_major_axis_km": 42164.92651570574,
      "eccentricity": 0.0002233,
      "inclination_deg": 0.0153,
      "raan_deg": 239.985,
      "arg_perigee_deg": 133.7661,
      "mean_anomaly_deg": 213.6583,
      "mean_motion_rev_day": 1.00271091
    },
    {
      "epoch": "2026-04-03T16:19:38.684640Z",
      "apogee_km": 35796.20325719963,
      "perigee_km": 35777.37577421184,
      "latitude_deg": 0.0002640590136571375,
      "longitude_deg": 150.48210661657137,
      "height_km": 35794.15651135739,
      "semi_major_axis_km": 42164.92651570574,
      "eccentricity": 0.00022326,
      "inclination_deg": 0.0153,
      "raan_deg": 239.985,
      "arg_perigee_deg": 133.7661,
      "mean_anomaly_deg": 213.6583,
      "mean_motion_rev_day": 1.00271091
    },
    {
      "epoch": "2026-04-05T13:27:38.734272Z",
      "apogee_km": 35795.76425425189,
      "perigee_km": 35776.856029575574,
      "latitude_deg": -0.026507191630107615,
      "longitude_deg": 150.50724722664978,
      "height_km": 35795.205998917045,
      "semi_major_axis_km": 42164.44714191373,
      "eccentricity": 0.00022422,
      "inclination_deg": 0.0155,
      "raan_deg": 253.7026,
      "arg_perigee_deg": 120.763,
      "mean_anomaly_deg": 171.8083,
      "mean_motion_rev_day": 1.00272801
    },
    {
      "epoch": "2026-04-05T20:07:38.782848Z",
      "apogee_km": 35795.95464851099,
      "perigee_km": 35777.26723222382,
      "latitude_deg": 0.02450721135013468,
      "longitude_deg": 150.47698719718454,
      "height_km": 35786.129317694205,
      "semi_major_axis_km": 42164.74794036741,
      "eccentricity": 0.0002216,
      "inclination_deg": 0.0147,
      "raan_deg": 253.2034,
      "arg_perigee_deg": 123.5151,
      "mean_anomaly_deg": 269.8287,
      "mean_motion_rev_day": 1.00271728
    },
    {
      "epoch": "2026-04-06T04:23:38.690016Z",
      "apogee_km": 35795.95112568657,
      "perigee_km": 35777.27804379975,
      "latitude_deg": 0.003978391485040515,
      "longitude_deg": 150.51632886774766,
      "height_km": 35778.31431150021,
      "semi_major_axis_km": 42164.751584743164,
      "eccentricity": 0.00022143,
      "inclination_deg": 0.0138,
      "raan_deg": 252.6728,
      "arg_perigee_deg": 124.3651,
      "mean_anomaly_deg": 33.8484,
      "mean_motion_rev_day": 1.00271715
    },
    {
      "epoch": "2026-04-07T18:45:38.424672Z",
      "apogee_km": 35796.08704958751,
      "perigee_km": 35777.35741911561,
      "latitude_deg": 0.020183261880139986,
      "longitude_deg": 150.4751956663089,
      "height_km": 35789.928771392166,
      "semi_major_axis_km": 42164.85923435156,
      "eccentricity": 0.0002221,
      "inclination_deg": 0.0156,
      "raan_deg": 239.3044,
      "arg_perigee_deg": 141.9561,
      "mean_anomaly_deg": 246.6981,
      "mean_motion_rev_day": 1.00271331
    }
  ]
}